RS57S MONITOR-4
1 57182U 23091S   25354.87974225  .00006529  00000+0  27490-3 0  9997
2 57182  97.5351  52.2631 0013078  14.0891 346.0708 15.23635783137109
RS-38S
1 57189U 23091Z   25354.88394167  .00010107  00000+0  35476-3 0  9996
2 57189  97.5355  56.3949 0008039 354.9350   5.1807 15.29587491137374
RS49S NANOZOND-1
1 57190U 23091AA  25354.86144021  .00051326  00000+0  78465-3 0  9991
2 57190  97.5278  65.1348 0004250 326.8924  33.2063 15.54235295137968
RS27S UTMN-2
1 57203U 23091AP  25354.86703726  .00008354  00000+0  31860-3 0  9990
2 57203  97.5355  55.0298 0008848 359.1236   0.9985 15.26907542137282
METEOR-M2-4
1 59051U 24039A   25354.86498705  .00000004  00000+0  21219-4 0  9996
2 59051  98.6778 311.6469 0006605 334.5689  25.5163 14.22402430 93918
SONATE-2
1 59112U 24043Q   25354.61787845  .00019695  00000+0  41190-3 0  9993
2 59112  97.5335 131.1656 0009292 134.3401 225.8611 15.45471040100190
MO-122
1 60209U 24125G   25354.55306914  .00022790  00000+0  45528-3 0  9999
2 60209  97.2514 204.9331 0014747 149.4882 210.7229 15.46704880 81812
GRBBeta
1 60237U 24128C   25354.79179030  .00003293  00000+0  23920-3 0  9995
2 60237  61.9903 121.3850 0055993  98.1617 262.5831 15.04830776 79409
Curium One
1 60242U 24128H   25354.35002585  .00007312  00000+0  45698-3 0  9995
2 60242  61.9795 117.6267 0055552  94.6260 266.1182 15.09026565 79430
ROBUSTA-3A
1 60243U 24128J   25354.82089053  .00005751  00000+0  36940-3 0  9998
2 60243  61.9869 117.5374 0055799  92.4549 268.2934 15.08334321 79484
CatSat
1 60246U 24125J   25354.14333024  .00024888  00000+0  59115-3 0  9994
2 60246  97.2301 201.4502 0034386 118.0602 242.4129 15.41038953 79669
ARTIC WX
1 60543U 24149CD  25354.76487850  .00000710  00000+0  79641-4 0  9990
2 60543  97.7015  65.1507 0002051  20.8705 339.2596 14.89789494 72732
ARCTICSAT 1
1 61762U 24199AD  25354.86274382  .00037811  00000+0  60703-3 0  9994
2 61762  97.3219 225.9405 0006770 171.6294 188.5074 15.52928094110114
MORDOVIA-IOT
1 61765U 24199AG  25354.29412977  .00130600  00000+0  10022-2 0  9996
2 61765  97.3107 228.2534 0005160 140.8918 219.2719 15.71661909107074
HYPERVIEW-1G (RS66S)
1 61772U 24199AP  25354.88676116  .00030473  00000+0  57355-3 0  9994
2 61772  97.3199 224.4271 0008392 200.5946 159.4968 15.48456066106872
AO-123
1 61781U 24199AY  25354.83700623  .00007169  00000+0  23317-3 0  9997
2 61781  97.3241 220.1989 0013151 223.1103 136.9110 15.32107644106589
ZIMSAT 2
1 61783U 24199BA  25353.53009689  .00207553  00000+0  12962-2 0  9991
2 61783  97.3076 226.8459 0004892 157.8032 202.3446 15.76266785110077
SAMSAT-IONOSPHERE
1 61784U 24199BB  25354.85378289  .00020089  00000+0  45072-3 0  9999
2 61784  97.3216 223.1475 0010203 209.0551 151.0131 15.43373611109936
CROCUBE
1 62394U 24247T   25353.51888728  .00018330  00000+0  52809-3 0  9999
2 62394  44.9731 182.4488 0004247 186.3510 173.7322 15.35523992 55616
HADES-R (SO-124)
1 62690U 25009CK  25353.50180803  .00139512  00000+0  16338-2 0  9995
2 62690  97.3864  76.3943 0001149 263.7674  96.3452 15.61075237 51837
HYDRA-T
1 62692U 25009CM  25354.17548695  .00149370  00000+0  15897-2 0  9990
2 62692  97.3868  77.3228 0001928 284.6487  75.4557 15.63518112 51952
JINJUSat 1B
1 63210U 25052A   25354.65002644  .00010993  00000+0  41827-3 0  9998
2 63210  97.4205 246.7571 0004779  27.0564 333.0923 15.26922874 42795
NUSHSAT 1
1 63211U 25052B   25354.70528788  .00012451  00000+0  45785-3 0  9995
2 63211  97.4186 246.9446 0004918  30.7123 329.4403 15.28018149 42812
TEVEL2-4
1 63213U 25052D   25354.64418270  .00011884  00000+0  44642-3 0  9994
2 63213  97.4108 246.4193 0004640  46.1717 313.9905 15.27325528 42797
TEVEL2-5
1 63214U 25052E   25354.65003458  .00011839  00000+0  44578-3 0  9992
2 63214  97.4105 246.4115 0004617  46.5306 313.6316 15.27248696 42794
TEVEL2-6
1 63215U 25052F   25354.65758705  .00011989  00000+0  45204-3 0  9998
2 63215  97.4107 246.4071 0004690  45.6743 314.4879 15.27201298 42794
TEVEL2-1
1 63217U 25052H   25354.43983044  .00011877  00000+0  45242-3 0  9990
2 63217  97.4081 245.9953 0005130  55.2100 304.9621 15.26862229 42755
TEVEL2-3
1 63218U 25052J   25354.17677809  .00011888  00000+0  45259-3 0  9991
2 63218  97.4083 245.7401 0005163  55.8382 304.3346 15.26878860 42710
TEVEL2-2
1 63219U 25052K   25354.44059172  .00012253  00000+0  46660-3 0  9993
2 63219  97.4083 245.9965 0005102  55.6601 304.5120 15.26864733 42753
TEVEL2-9
1 63237U 25052AD  25354.67363464  .00010091  00000+0  40234-3 0  9999
2 63237  97.4142 245.9231 0009085  60.1065 300.1074 15.25356468 42754
TEVEL2-7
1 63238U 25052AE  25354.42591503  .00010646  00000+0  42628-3 0  9995
2 63238  97.4148 245.6501 0009235  60.9778 299.2385 15.25196284 42711
TEVEL2-8
1 63239U 25052AF  25354.69411517  .00010031  00000+0  40211-3 0  9995
2 63239  97.4146 245.9001 0009220  60.3043 299.9112 15.25176197 42751
HYDRA-W
1 63490U 25052BL  25354.48952649  .00050506  00000+0  11638-2 0  9998
2 63490  97.4064 248.3860 0011153  52.1126 308.1128 15.42372054 42915
HADES-ICM (SO-125)
1 63492U 25052BN  25354.49448221  .00044730  00000+0  11053-2 0  9990
2 63492  97.4083 248.1003 0011190  53.4081 306.8193 15.40288790 42895
PARUS-T2
1 64574U 25135AY  25354.85389918  .00003076  00000+0  29385-3 0  9997
2 64574  97.7612 106.5951 0001972 177.8755 182.2473 14.94007791 27284
Dragonfly
1 65729U 98067XH  25354.48802592  .00147536  00000+0  98006-3 0  9997
2 65729  51.6254  96.0114 0007437 325.9909  34.0612 15.74448787 14380
RSP-03
1 65732U 98067XL  25353.42469933  .00106087  00000+0  84699-3 0  9991
2 65732  51.6265 102.4221 0005658 294.5755  65.4652 15.70283101 14217
GHS-01
1 65733U 98067XM  25354.48693375  .00197582  00000+0  11085-2 0  9996
2 65733  51.6277  95.2602 0008545 329.3713  30.6788 15.78117355 14402
BOTAN
1 65942U 98067XP  25354.57898423  .00082185  00000+0  83574-3 0  9994
2 65942  51.6283  99.6415 0002950 304.2475  55.8240 15.64441775 11097
BEE-1000
1 66650U 25274A   25354.80205682  .00001026  00000+0  10751-3 0  9998
2 66650  97.7403 281.8419 0010777 221.4492 138.5910 14.91685415  3604
SPIRONE
1 66657U 25274H   25354.78957845  .00001455  00000+0  14714-3 0  9996
2 66657  97.7400 281.8569 0010825 245.5700 114.4390 14.92494728  3608
K-HERO
1 66660U 25274L   25354.78137397  .00001197  00000+0  12043-3 0  9998
2 66660  97.7407 281.8694 0012654 251.1884 108.7963 14.93000618  3600
SNUGLITE-III DURI
1 66661U 25274M   25354.77904219  .00001429  00000+0  14230-3 0  9991
2 66661  97.7402 281.8718 0013262 252.4411 107.5360 14.93134387  3608
SilverSat
1 66909U 98067XV  25353.55080352  .00049748  00000+0  79912-3 0  9998
2 66909  51.6306 108.5226 0003839 268.6960  91.3590 15.52516520  2671
Delfi-N3xt
1 39428U 13066N   25354.72275457  .00005352  00000-0  50197-3 0  9990
2 39428  97.8357 270.5755 0081095  79.5115 281.5228 14.91926068647987
IO-86
1 40931U 15052B   25151.18580175  .00001241  00000-0  78118-4 0  9996
2 40931   6.0006  24.0987 0012733 338.8432  21.1169 14.78805930523159
TUBIN
1 48900U 21059X   25349.78845228  .07315651  27141-5  56139-3 0  9990
2 48900  97.6553 178.8839 0007270 265.1302  94.9166 16.40417761249824
CEVROSAT1
1 98526U 25248E   25313.13142326  .00000000  00000-0  19360-3 0    02
2 98526  45.4084 218.4764 0001315 254.8982 242.1062 15.17981583    02
PARUS-T1
1 98707U 25009N   25063.20000000  .00000000  00000-0  00000-0 0    08
2 98707  97.4430 144.9801 0003811 149.1702 136.3402 15.16239457    06
T.MicroSat-1
1 98515U 25276Y   25347.12519372 +.00009703 +00000+0 +47621-3 0 00218
2 98515  97.4377  58.8963 0002080  99.7173 260.4296 15.18293117002180
CORIOLIS
1 27640U 03001A   25354.77609003  .00000100  00000+0  67561-4 0  9993
2 27640  98.7140 359.3845 0014212  11.2241 348.9250 14.19875209188901
